[{"OBJECT_NAME":"YAOGAN-27","OBJECT_ID":"2015-040A","EPOCH":"2025-03-09T22:00:38.535552","MEAN_MOTION":13.160432,"ECCENTRICITY":0.0008011,"INCLINATION":100.0868,"RA_OF_ASC_NODE":71.2736,"ARG_OF_PERICENTER":201.6167,"MEAN_ANOMALY":158.461,"EPHEMERIS_TYPE":0,"CLASSIFICATION_TYPE":"U","NORAD_CAT_ID":40878,"ELEMENT_SET_NO":999,"REV_AT_EPOCH":45659,"BSTAR":8.8886e-5,"MEAN_MOTION_DOT":-8.0e-8,"MEAN_MOTION_DDOT":0},{"OBJECT_NAME":"GAOFEN-9 01","OBJECT_ID":"2015-047A","EPOCH":"2025-03-09T21:21:09.832032","MEAN_MOTION":14.81460648,"ECCENTRICITY":0.0027288,"INCLINATION":97.6913,"RA_OF_ASC_NODE":119.3408,"ARG_OF_PERICENTER":218.8839,"MEAN_ANOMALY":141.0411,"EPHEMERIS_TYPE":0,"CLASSIFICATION_TYPE":"U","NORAD_CAT_ID":40894,"ELEMENT_SET_NO":999,"REV_AT_EPOCH":51141,"BSTAR":0.00029641,"MEAN_MOTION_DOT":2.285e-5,"MEAN_MOTION_DDOT":0},{"OBJECT_NAME":"YAOGAN-28","OBJECT_ID":"2015-064A","EPOCH":"2025-03-09T21:44:31.062912","MEAN_MOTION":15.23943535,"ECCENTRICITY":0.0010076,"INCLINATION":97.2407,"RA_OF_ASC_NODE":215.5124,"ARG_OF_PERICENTER":358.6004,"MEAN_ANOMALY":1.5204,"EPHEMERIS_TYPE":0,"CLASSIFICATION_TYPE":"U","NORAD_CAT_ID":41026,"ELEMENT_SET_NO":999,"REV_AT_EPOCH":51994,"BSTAR":0.00065826,"MEAN_MOTION_DOT":0.0001589,"MEAN_MOTION_DDOT":0},{"OBJECT_NAME":"YAOGAN-29","OBJECT_ID":"2015-069A","EPOCH":"2025-03-09T21:51:44.841888","MEAN_MOTION":14.82455856,"ECCENTRICITY":0.0002953,"INCLINATION":98.0434,"RA_OF_ASC_NODE":90.8285,"ARG_OF_PERICENTER":93.4297,"MEAN_ANOMALY":266.7254,"EPHEMERIS_TYPE":0,"CLASSIFICATION_TYPE":"U","NORAD_CAT_ID":41038,"ELEMENT_SET_NO":999,"REV_AT_EPOCH":50182,"BSTAR":0.00013519,"MEAN_MOTION_DOT":1.03e-5,"MEAN_MOTION_DDOT":0},{"OBJECT_NAME":"KENT RIDGE 1","OBJECT_ID":"2015-077B","EPOCH":"2025-03-09T17:25:59.992320","MEAN_MOTION":15.18923761,"ECCENTRICITY":0.0009378,"INCLINATION":14.9805,"RA_OF_ASC_NODE":109.7325,"ARG_OF_PERICENTER":185.0191,"MEAN_ANOMALY":175.0037,"EPHEMERIS_TYPE":0,"CLASSIFICATION_TYPE":"U","NORAD_CAT_ID":41167,"ELEMENT_SET_NO":999,"REV_AT_EPOCH":51040,"BSTAR":0.00031333,"MEAN_MOTION_DOT":7.487e-5,"MEAN_MOTION_DDOT":0},{"OBJECT_NAME":"TELEOS-1","OBJECT_ID":"2015-077D","EPOCH":"2025-03-09T21:11:06.638208","MEAN_MOTION":15.59561615,"ECCENTRICITY":0.0001652,"INCLINATION":14.9781,"RA_OF_ASC_NODE":297.6866,"ARG_OF_PERICENTER":127.4894,"MEAN_ANOMALY":232.5583,"EPHEMERIS_TYPE":0,"CLASSIFICATION_TYPE":"U","NORAD_CAT_ID":41169,"ELEMENT_SET_NO":999,"REV_AT_EPOCH":51194,"BSTAR":0.001212,"MEAN_MOTION_DOT":0.00103105,"MEAN_MOTION_DDOT":0},{"OBJECT_NAME":"GAOFEN-4","OBJECT_ID":"2015-083A","EPOCH":"2025-03-09T20:22:48.355392","MEAN_MOTION":1.00269413,"ECCENTRICITY":0.0001952,"INCLINATION":0.0974,"RA_OF_ASC_NODE":292.3558,"ARG_OF_PERICENTER":84.9434,"MEAN_ANOMALY":201.8235,"EPHEMERIS_TYPE":0,"CLASSIFICATION_TYPE":"U","NORAD_CAT_ID":41194,"ELEMENT_SET_NO":999,"REV_AT_EPOCH":3387,"BSTAR":0,"MEAN_MOTION_DOT":-3.52e-6,"MEAN_MOTION_DDOT":0},{"OBJECT_NAME":"JASON-3","OBJECT_ID":"2016-002A","EPOCH":"2025-03-09T22:11:48.088032","MEAN_MOTION":12.80931606,"ECCENTRICITY":0.0008041,"INCLINATION":66.0444,"RA_OF_ASC_NODE":19.6203,"ARG_OF_PERICENTER":273.4398,"MEAN_ANOMALY":86.5697,"EPHEMERIS_TYPE":0,"CLASSIFICATION_TYPE":"U","NORAD_CAT_ID":41240,"ELEMENT_SET_NO":999,"REV_AT_EPOCH":42753,"BSTAR":0.00011574,"MEAN_MOTION_DOT":-3.4e-7,"MEAN_MOTION_DDOT":0},{"OBJECT_NAME":"SENTINEL-3A","OBJECT_ID":"2016-011A","EPOCH":"2025-03-09T21:16:34.228992","MEAN_MOTION":14.2674006,"ECCENTRICITY":0.0001277,"INCLINATION":98.6192,"RA_OF_ASC_NODE":137.8633,"ARG_OF_PERICENTER":98.1965,"MEAN_ANOMALY":261.936,"EPHEMERIS_TYPE":0,"CLASSIFICATION_TYPE":"U","NORAD_CAT_ID":41335,"ELEMENT_SET_NO":999,"REV_AT_EPOCH":47185,"BSTAR":0.00012979,"MEAN_MOTION_DOT":2.71e-6,"MEAN_MOTION_DDOT":0},{"OBJECT_NAME":"ZIYUAN 3-2 (ZY 3-2)","OBJECT_ID":"2016-033A","EPOCH":"2025-03-09T21:19:42.369312","MEAN_MOTION":15.2116332,"ECCENTRICITY":0.0007548,"INCLINATION":97.4262,"RA_OF_ASC_NODE":147.2346,"ARG_OF_PERICENTER":128.5143,"MEAN_ANOMALY":231.6771,"EPHEMERIS_TYPE":0,"CLASSIFICATION_TYPE":"U","NORAD_CAT_ID":41556,"ELEMENT_SET_NO":999,"REV_AT_EPOCH":48739,"BSTAR":0.00064702,"MEAN_MOTION_DOT":0.00014373,"MEAN_MOTION_DDOT":0},{"OBJECT_NAME":"CARTOSAT-2C","OBJECT_ID":"2016-040A","EPOCH":"2025-03-09T20:26:34.281888","MEAN_MOTION":15.19314898,"ECCENTRICITY":0.0012491,"INCLINATION":97.4355,"RA_OF_ASC_NODE":130.5293,"ARG_OF_PERICENTER":304.4103,"MEAN_ANOMALY":55.595,"EPHEMERIS_TYPE":0,"CLASSIFICATION_TYPE":"U","NORAD_CAT_ID":41599,"ELEMENT_SET_NO":999,"REV_AT_EPOCH":48321,"BSTAR":0.00046307,"MEAN_MOTION_DOT":9.734e-5,"MEAN_MOTION_DDOT":0},{"OBJECT_NAME":"SKYSAT-C1","OBJECT_ID":"2016-040C","EPOCH":"2025-03-09T16:39:31.428000","MEAN_MOTION":15.30228761,"ECCENTRICITY":0.0003497,"INCLINATION":97.021,"RA_OF_ASC_NODE":121.5224,"ARG_OF_PERICENTER":122.6087,"MEAN_ANOMALY":237.5493,"EPHEMERIS_TYPE":0,"CLASSIFICATION_TYPE":"U","NORAD_CAT_ID":41601,"ELEMENT_SET_NO":999,"REV_AT_EPOCH":48675,"BSTAR":0.00059389,"MEAN_MOTION_DOT":0.00017321,"MEAN_MOTION_DDOT":0},{"OBJECT_NAME":"LAPAN-A3","OBJECT_ID":"2016-040E","EPOCH":"2025-03-09T21:40:55.399008","MEAN_MOTION":15.28812108,"ECCENTRICITY":0.0009629,"INCLINATION":97.14,"RA_OF_ASC_NODE":77.1554,"ARG_OF_PERICENTER":229.5119,"MEAN_ANOMALY":130.5283,"EPHEMERIS_TYPE":0,"CLASSIFICATION_TYPE":"U","NORAD_CAT_ID":41603,"ELEMENT_SET_NO":999,"REV_AT_EPOCH":48377,"BSTAR":0.00024448,"MEAN_MOTION_DOT":6.783e-5,"MEAN_MOTION_DDOT":0},{"OBJECT_NAME":"BIROS","OBJECT_ID":"2016-040F","EPOCH":"2025-03-09T14:45:47.366784","MEAN_MOTION":15.54735549,"ECCENTRICITY":0.0007771,"INCLINATION":97.0981,"RA_OF_ASC_NODE":97.7695,"ARG_OF_PERICENTER":142.9816,"MEAN_ANOMALY":217.1976,"EPHEMERIS_TYPE":0,"CLASSIFICATION_TYPE":"U","NORAD_CAT_ID":41604,"ELEMENT_SET_NO":999,"REV_AT_EPOCH":48517,"BSTAR":0.00069259,"MEAN_MOTION_DOT":0.00046139,"MEAN_MOTION_DDOT":0},{"OBJECT_NAME":"GAOFEN-3","OBJECT_ID":"2016-049A","EPOCH":"2025-03-09T22:38:39.176736","MEAN_MOTION":14.4222734,"ECCENTRICITY":0.0001365,"INCLINATION":98.4067,"RA_OF_ASC_NODE":78.6678,"ARG_OF_PERICENTER":87.2743,"MEAN_ANOMALY":272.8603,"EPHEMERIS_TYPE":0,"CLASSIFICATION_TYPE":"U","NORAD_CAT_ID":41727,"ELEMENT_SET_NO":999,"REV_AT_EPOCH":45173,"BSTAR":7.5091e-5,"MEAN_MOTION_DOT":2.04e-6,"MEAN_MOTION_DDOT":0},{"OBJECT_NAME":"SKYSAT-C4","OBJECT_ID":"2016-058B","EPOCH":"2025-03-09T16:48:23.078304","MEAN_MOTION":15.34499096,"ECCENTRICITY":0.0001827,"INCLINATION":96.9709,"RA_OF_ASC_NODE":108.5007,"ARG_OF_PERICENTER":87.8861,"MEAN_ANOMALY":272.2592,"EPHEMERIS_TYPE":0,"CLASSIFICATION_TYPE":"U","NORAD_CAT_ID":41771,"ELEMENT_SET_NO":999,"REV_AT_EPOCH":47394,"BSTAR":0.00062702,"MEAN_MOTION_DOT":0.00020913,"MEAN_MOTION_DDOT":0},{"OBJECT_NAME":"SKYSAT-C5","OBJECT_ID":"2016-058C","EPOCH":"2025-03-09T17:34:01.495200","MEAN_MOTION":15.36983241,"ECCENTRICITY":0.0005497,"INCLINATION":97.1157,"RA_OF_ASC_NODE":122.4226,"ARG_OF_PERICENTER":41.5149,"MEAN_ANOMALY":318.6512,"EPHEMERIS_TYPE":0,"CLASSIFICATION_TYPE":"U","NORAD_CAT_ID":41772,"ELEMENT_SET_NO":999,"REV_AT_EPOCH":47248,"BSTAR":0.00061638,"MEAN_MOTION_DOT":0.00022267,"MEAN_MOTION_DDOT":0}]
