YAOGAN-27               
1 40878U 15040A   25068.91711268 -.00000008  00000+0  88886-4 0  9993
2 40878 100.0868  71.2736 0008011 201.6167 158.4610 13.16043200456595
GAOFEN-9 01             
1 40894U 15047A   25068.88969713  .00002285  00000+0  29641-3 0  9995
2 40894  97.6913 119.3408 0027288 218.8839 141.0411 14.81460648511410
YAOGAN-28               
1 41026U 15064A   25068.90591508  .00015890  00000+0  65826-3 0  9999
2 41026  97.2407 215.5124 0010076 358.6004   1.5204 15.23943535519944
YAOGAN-29               
1 41038U 15069A   25068.91093567  .00001030  00000+0  13519-3 0  9993
2 41038  98.0434  90.8285 0002953  93.4297 266.7254 14.82455856501827
KENT RIDGE 1            
1 41167U 15077B   25068.72638880  .00007487  00000+0  31333-3 0  9993
2 41167  14.9805 109.7325 0009378 185.0191 175.0037 15.18923761510403
TELEOS-1                
1 41169U 15077D   25068.88271572  .00103105  00000+0  12120-2 0  9999
2 41169  14.9781 297.6866 0001652 127.4894 232.5583 15.59561615511948
GAOFEN-4                
1 41194U 15083A   25068.84917078 -.00000352  00000+0  00000+0 0  9990
2 41194   0.0974 292.3558 0001952  84.9434 201.8235  1.00269413 33872
JASON-3                 
1 41240U 16002A   25068.92486213 -.00000034  00000+0  11574-3 0  9994
2 41240  66.0444  19.6203 0008041 273.4398  86.5697 12.80931606427535
SENTINEL-3A             
1 41335U 16011A   25068.88650728  .00000271  00000+0  12979-3 0  9990
2 41335  98.6192 137.8633 0001277  98.1965 261.9360 14.26740060471851
ZIYUAN 3-2 (ZY 3-2)     
1 41556U 16033A   25068.88868483  .00014373  00000+0  64702-3 0  9997
2 41556  97.4262 147.2346 0007548 128.5143 231.6771 15.21163320487390
CARTOSAT-2C             
1 41599U 16040A   25068.85178567  .00009734  00000+0  46307-3 0  9992
2 41599  97.4355 130.5293 0012491 304.4103  55.5950 15.19314898483214
SKYSAT-C1               
1 41601U 16040C   25068.69411375  .00017321  00000+0  59389-3 0  9990
2 41601  97.0210 121.5224 0003497 122.6087 237.5493 15.30228761486757
LAPAN-A3                
1 41603U 16040E   25068.90341897  .00006783  00000+0  24448-3 0  9995
2 41603  97.1400  77.1554 0009629 229.5119 130.5283 15.28812108483778
BIROS                   
1 41604U 16040F   25068.61513156  .00046139  00000+0  69259-3 0  9991
2 41604  97.0981  97.7695 0007771 142.9816 217.1976 15.54735549485173
GAOFEN-3                
1 41727U 16049A   25068.94350899  .00000204  00000+0  75091-4 0  9990
2 41727  98.4067  78.6678 0001365  87.2743 272.8603 14.42227340451732
SKYSAT-C4               
1 41771U 16058B   25068.70026711  .00020913  00000+0  62702-3 0  9999
2 41771  96.9709 108.5007 0001827  87.8861 272.2592 15.34499096473945
SKYSAT-C5               
1 41772U 16058C   25068.73196175  .00022267  00000+0  61638-3 0  9996
2 41772  97.1157 122.4226 0005497  41.5149 318.6512 15.36983241472484
